ZHANGHENG 1-02 (CSES-2) 
1 64393U 25128A   26066.73730833 -.00000031  00000+0  16470-5 0  9994
2 64393  97.3434 195.9568 0014227 108.2865 251.9920 15.21023059 40501
FLOCK 4H-23             
1 66726U 25276BN  26068.76636885  .00008172  00000+0  39949-3 0  9994
2 66726  97.4304 144.0252 0004026   1.9610 358.1639 15.18478039 15325
